OBJECT_NAME,OBJECT_ID,EPOCH,MEAN_MOTION,ECCENTRICITY,INCLINATION,RA_OF_ASC_NODE,ARG_OF_PERICENTER,MEAN_ANOMALY,EPHEMERIS_TYPE,CLASSIFICATION_TYPE,NORAD_CAT_ID,ELEMENT_SET_NO,REV_AT_EPOCH,BSTAR,MEAN_MOTION_DOT,MEAN_MOTION_DDOT
GPS BIIR-5  (PRN 22),2000-040A,2026-07-15T16:33:36.595296,2.00557849,.01205037,54.8484,214.0300,302.7446,41.0255,0,U,26407,999,19051,0,.47E-6,0
GPS BIIR-8  (PRN 16),2003-005A,2026-07-16T00:55:17.989824,2.00558980,.01482928,54.8788,213.8224,53.1718,318.3547,0,U,27663,999,17189,0,.44E-6,0
GPS BIIR-11 (PRN 19),2004-009A,2026-07-15T07:44:57.281280,2.00553680,.01171901,54.8064,274.5493,174.3466,193.0919,0,U,28190,999,16351,0,-.17E-6,0
GPS BIIR-13 (PRN 02),2004-045A,2026-07-15T06:03:08.669088,2.00557037,.01701848,55.1181,323.7660,317.0606,64.4184,0,U,28474,999,15899,0,-.92E-6,0
GPS BIIRM-1 (PRN 17),2005-038A,2026-07-16T06:40:53.963904,2.00563624,.01282296,54.8546,272.0021,296.4273,70.6506,0,U,28874,999,15242,0,-.22E-6,0
INMARSAT 4-F2 (SOUTHPAN/PRN 122),2005-044A,2026-07-16T12:17:30.704352,1.00270585,.00027667,5.1333,43.6642,63.2398,155.3051,0,U,28899,999,7581,0,-.273E-5,0
GPS BIIRM-2 (PRN 31),2006-042A,2026-07-16T14:33:28.836000,2.00568138,.01072281,54.7129,150.1709,55.1966,87.8158,0,U,29486,999,14498,0,.21E-6,0
GPS BIIRM-3 (PRN 12),2006-052A,2026-07-16T08:04:39.211680,2.00559750,.00847448,54.9321,212.8507,90.9961,270.0095,0,U,29601,999,14399,0,.42E-6,0
GPS BIIRM-4 (PRN 15),2007-047A,2026-07-16T15:24:56.221632,2.00553854,.01678373,54.1169,78.8515,88.0227,273.9620,0,U,32260,999,13740,0,-.36E-6,0
COSMOS 2433 (720),2007-052A,2026-07-15T12:58:06.119904,2.13104114,.00035041,65.5593,314.9799,203.5132,156.4812,0,U,32275,999,14566,0,-.64E-6,0
COSMOS 2432 (719),2007-052B,2026-07-16T13:05:31.536096,2.13103058,.00074062,65.5746,315.0744,321.6599,33.2308,0,U,32276,999,14570,0,-.65E-6,0
GPS BIIRM-5 (PRN 29),2007-062A,2026-07-14T22:49:13.318176,2.00561560,.0036056,55.0097,273.0354,167.4938,179.2057,0,U,32384,999,13606,0,-.11E-6,0
COSMOS 2434 (721),2007-065A,2026-07-15T09:30:25.207776,2.13101170,.00012762,64.3200,190.9641,327.5918,171.4568,0,U,32393,999,14437,0,.54E-6,0
COSMOS 2436 (723),2007-065C,2026-07-15T04:32:36.170592,2.13099957,.00173142,64.3286,191.0436,353.5207,119.0574,0,U,32395,999,14432,0,.56E-6,0
GPS BIIRM-6 (PRN 07),2008-012A,2026-07-16T01:15:16.151328,2.00573136,.0211681,54.5002,148.7716,248.1586,109.5403,0,U,32711,999,13433,0,.15E-6,0
GPS BIIRM-8 (PRN 05),2009-043A,2026-07-16T13:18:36.857664,2.00552658,.00537109,56.2287,26.2994,84.4473,285.7660,0,U,35752,999,12395,0,-.81E-6,0
COSMOS 2456 (730),2009-070A,2026-07-16T04:16:30.382752,2.13103569,.00036196,65.0282,69.9837,341.1750,196.1088,0,U,36111,999,12904,0,-.16E-6,0
COSMOS 2457 (733),2009-070B,2026-07-13T04:41:57.056928,2.13101172,.0004075,65.0120,69.9289,121.6619,54.8410,0,U,36112,999,12898,0,-.12E-6,0
COSMOS 2460 (732),2010-007C,2026-07-14T09:40:25.826880,2.13101628,.0001835,65.4032,313.5463,143.6915,240.9432,0,U,36402,999,12731,0,-.62E-6,0
GPS BIIF-1  (PRN 25),2010-022A,2026-07-15T08:58:33.645792,2.00563746,.01267238,54.2685,207.4265,66.1541,291.5416,0,U,36585,999,11815,0,.49E-6,0
BEIDOU-2 IGSO-1 (C06),2010-036A,2026-07-14T22:00:55.325664,1.00264343,.0059022,54.3063,162.7092,225.2803,342.1032,0,U,36828,999,5837,0,-.122E-5,0
BEIDOU-2 G4 (C04),2010-057A,2026-07-16T14:04:55.766784,1.00272555,.00056174,3.7181,68.7608,185.5947,51.2125,0,U,37210,999,5758,0,-.125E-5,0
BEIDOU-2 IGSO-2 (C07),2010-068A,2026-07-15T15:35:22.636320,1.00272942,.00569016,47.4956,271.4764,213.8035,150.3630,0,U,37256,999,5708,0,-.192E-5,0
BEIDOU-2 IGSO-3 (C08),2011-013A,2026-07-16T12:06:39.245760,1.00260363,.0035582,62.4487,39.8739,183.5035,359.0316,0,U,37384,999,5595,0,-.169E-5,0
GSAT-8 (GAGAN/PRN 127),2011-022A,2026-07-16T13:35:01.020192,1.00272127,.00026277,2.2052,81.4623,160.4503,311.3269,0,U,37605,999,5351,0,.73E-6,0
BEIDOU-2 IGSO-4 (C09),2011-038A,2026-07-12T21:52:21.720000,1.00279714,.01603423,54.6038,165.4445,231.4539,316.2369,0,U,37763,999,5490,0,-.17E-6,0
GSAT0101 (GALILEO-PFM),2011-060A,2026-07-15T14:11:05.797248,1.70475567,.0002223,56.9841,340.9916,61.9424,298.0655,0,U,37846,999,9160,0,-.101E-5,0
GSAT0102 (GALILEO-FM2),2011-060B,2026-07-15T12:19:38.977248,1.70475846,.00021082,56.9849,340.9943,7.4765,350.6813,0,U,37847,999,9160,0,-.101E-5,0
COSMOS 2476 (744),2011-064A,2026-07-16T07:16:38.740224,2.13103673,.00221389,65.2862,71.8890,235.9311,305.6457,0,U,37867,999,11438,0,-.15E-6,0
COSMOS 2477 (745),2011-064B,2026-07-15T03:41:41.820000,2.13102912,.0019117,65.2921,72.0075,236.8947,323.2552,0,U,37868,999,11435,0,-.1E-6,0
COSMOS 2475 (743),2011-064C,2026-07-16T14:19:55.576992,2.13101724,.00247985,65.2997,71.9806,251.1530,291.1802,0,U,37869,999,11439,0,-.17E-6,0
